{"type": "FeatureCollection", "features": [ {"type": "Feature", "properties": {"norad_id": 66505, "name": "STARLINK-34766", "group": "last-30-days", "lat": -37.88869710120438, "lon": 81.67183197959126, "alt_km": 417.20903497979, "timestamp": "2025-12-10T11:33:52.171693+00:00", "meta": {"OBJECT_NAME": "STARLINK-34766", "OBJECT_ID": "2025-263W", "EPOCH": "2025-12-10T04:00:01.998720", "MEAN_MOTION": 15.50625472, "ECCENTRICITY": 0.0001788, "INCLINATION": 43.0009, "RA_OF_ASC_NODE": 140.1365, "ARG_OF_PERICENTER": 266.3406, "MEAN_ANOMALY": 68.0388, "EPHEMERIS_TYPE": 0, "CLASSIFICATION_TYPE": "U", "NORAD_CAT_ID": 66505, "ELEMENT_SET_NO": 999, "REV_AT_EPOCH": 522, "BSTAR": -0.0022816, "MEAN_MOTION_DOT": -0.0013218, "MEAN_MOTION_DDOT": 0}, "tle": {"line1": "1 66505U 25263W   25344.16668980 -.00132180  00000+0 -22816-2 0  9999", "line2": "2 66505  43.0009 140.1365 0001788 266.3406  68.0388 15.50625472  5220"}}, "geometry": {"type": "Point", "coordinates": [81.67183197959126, -37.88869710120438]}}, {"type": "Feature", "properties": {"norad_id": 66506, "name": "STARLINK-34765", "group": "last-30-days", "lat": -37.15216865832073, "lon": 83.8866942357969, "alt_km": 417.268998131005, "timestamp": "2025-12-10T11:33:52.171705+00:00", "meta": {"OBJECT_NAME": "STARLINK-34765", "OBJECT_ID": "2025-263X", "EPOCH": "2025-12-10T04:00:01.998720", "MEAN_MOTION": 15.50568807, "ECCENTRICITY": 0.0001615, "INCLINATION": 43.0008, "RA_OF_ASC_NODE": 140.1325, "ARG_OF_PERICENTER": 264.6529, "MEAN_ANOMALY": 71.6604, "EPHEMERIS_TYPE": 0, "CLASSIFICATION_TYPE": "U", "NORAD_CAT_ID": 66506, "ELEMENT_SET_NO": 999, "REV_AT_EPOCH": 522, "BSTAR": -0.00033849, "MEAN_MOTION_DOT": -0.00020141, "MEAN_MOTION_DDOT": 0}, "tle": {"line1": "1 66506U 25263X   25344.16668980 -.00020141  00000+0 -33849-3 0  9992", "line2": "2 66506  43.0008 140.1325 0001615 264.6529  71.6604 15.50568807  5221"}}, "geometry": {"type": "Point", "coordinates": [83.8866942357969, -37.15216865832073]}}, {"type": "Feature", "properties": {"norad_id": 66507, "name": "STARLINK-34767", "group": "last-30-days", "lat": -35.55095062194977, "lon": 88.2037067604008, "alt_km": 417.23585047721645, "timestamp": "2025-12-10T11:33:52.171715+00:00", "meta": {"OBJECT_NAME": "STARLINK-34767", "OBJECT_ID": "2025-263Y", "EPOCH": "2025-12-10T04:00:01.998720", "MEAN_MOTION": 15.50629653, "ECCENTRICITY": 0.000159, "INCLINATION": 43.0009, "RA_OF_ASC_NODE": 140.1219, "ARG_OF_PERICENTER": 266.3008, "MEAN_ANOMALY": 73.8205, "EPHEMERIS_TYPE": 0, "CLASSIFICATION_TYPE": "U", "NORAD_CAT_ID": 66507, "ELEMENT_SET_NO": 999, "REV_AT_EPOCH": 522, "BSTAR": -0.0021135, "MEAN_MOTION_DOT": -0.0012263, "MEAN_MOTION_DDOT": 0}, "tle": {"line1": "1 66507U 25263Y   25344.16668980 -.00122630  00000+0 -21135-2 0  9993", "line2": "2 66507  43.0009 140.1219 0001590 266.3008  73.8205 15.50629653  5226"}}, "geometry": {"type": "Point", "coordinates": [88.2037067604008, -35.55095062194977]}}, {"type": "Feature", "properties": {"norad_id": 66508, "name": "STARLINK-35608", "group": "last-30-days", "lat": -32.876322241363276, "lon": 94.3488625685191, "alt_km": 417.16264706076527, "timestamp": "2025-12-10T11:33:52.171725+00:00", "meta": {"OBJECT_NAME": "STARLINK-35608", "OBJECT_ID": "2025-263Z", "EPOCH": "2025-12-10T04:00:01.998720", "MEAN_MOTION": 15.50637556, "ECCENTRICITY": 0.0001655, "INCLINATION": 43.0008, "RA_OF_ASC_NODE": 140.1081, "ARG_OF_PERICENTER": 265.4242, "MEAN_ANOMALY": 80.4555, "EPHEMERIS_TYPE": 0, "CLASSIFICATION_TYPE": "U", "NORAD_CAT_ID": 66508, "ELEMENT_SET_NO": 999, "REV_AT_EPOCH": 522, "BSTAR": -0.002647, "MEAN_MOTION_DOT": -0.00152959, "MEAN_MOTION_DDOT": 0}, "tle": {"line1": "1 66508U 25263Z   25344.16668980 -.00152959  00000+0 -26470-2 0  9998", "line2": "2 66508  43.0008 140.1081 0001655 265.4242  80.4555 15.50637556  5228"}}, "geometry": {"type": "Point", "coordinates": [94.3488625685191, -32.876322241363276]}}, {"type": "Feature", "properties": {"norad_id": 66509, "name": "STARLINK-35598", "group": "last-30-days", "lat": -28.88600040185245, "lon": 101.94104136599931, "alt_km": 417.0497688141977, "timestamp": "2025-12-10T11:33:52.171734+00:00", "meta": {"OBJECT_NAME": "STARLINK-35598", "OBJECT_ID": "2025-263AA", "EPOCH": "2025-12-10T04:00:01.998720", "MEAN_MOTION": 15.50579888, "ECCENTRICITY": 0.0001479, "INCLINATION": 43.0008, "RA_OF_ASC_NODE": 140.0871, "ARG_OF_PERICENTER": 267.3339, "MEAN_ANOMALY": 86.235, "EPHEMERIS_TYPE": 0, "CLASSIFICATION_TYPE": "U", "NORAD_CAT_ID": 66509, "ELEMENT_SET_NO": 999, "REV_AT_EPOCH": 522, "BSTAR": -0.00084913, "MEAN_MOTION_DOT": -0.00049841, "MEAN_MOTION_DDOT": 0}, "tle": {"line1": "1 66509U 25263AA  25344.16668980 -.00049841  00000+0 -84913-3 0  9991", "line2": "2 66509  43.0008 140.0871 0001479 267.3339  86.2350 15.50579888  5227"}}, "geometry": {"type": "Point", "coordinates": [101.94104136599931, -28.88600040185245]}}, {"type": "Feature", "properties": {"norad_id": 66510, "name": "STARLINK-35600", "group": "last-30-days", "lat": -31.92210668303649, "lon": 96.30441588923503, "alt_km": 417.13419135423464, "timestamp": "2025-12-10T11:33:52.171744+00:00", "meta": {"OBJECT_NAME": "STARLINK-35600", "OBJECT_ID": "2025-263AB", "EPOCH": "2025-12-10T04:00:01.998720", "MEAN_MOTION": 15.50635161, "ECCENTRICITY": 0.0001639, "INCLINATION": 43.0008, "RA_OF_ASC_NODE": 140.1016, "ARG_OF_PERICENTER": 264.9713, "MEAN_ANOMALY": 82.8212, "EPHEMERIS_TYPE": 0, "CLASSIFICATION_TYPE": "U", "NORAD_CAT_ID": 66510, "ELEMENT_SET_NO": 999, "REV_AT_EPOCH": 522, "BSTAR": -0.0024806, "MEAN_MOTION_DOT": -0.00143519, "MEAN_MOTION_DDOT": 0}, "tle": {"line1": "1 66510U 25263AB  25344.16668980 -.00143519  00000+0 -24806-2 0  9994", "line2": "2 66510  43.0008 140.1016 0001639 264.9713  82.8212 15.50635161  5224"}}, "geometry": {"type": "Point", "coordinates": [96.30441588923503, -31.92210668303649]}}, {"type": "Feature", "properties": {"norad_id": 66511, "name": "STARLINK-35444", "group": "last-30-days", "lat": -29.92127043615522, "lon": 100.10902526349889, "alt_km": 417.15246381781344, "timestamp": "2025-12-10T11:33:52.171754+00:00", "meta": {"OBJECT_NAME": "STARLINK-35444", "OBJECT_ID": "2025-263AC", "EPOCH": "2025-12-10T04:00:01.998720", "MEAN_MOTION": 15.5060967, "ECCENTRICITY": 0.0001498, "INCLINATION": 43.0008, "RA_OF_ASC_NODE": 140.0935, "ARG_OF_PERICENTER": 266.4298, "MEAN_ANOMALY": 85.2242, "EPHEMERIS_TYPE": 0, "CLASSIFICATION_TYPE": "U", "NORAD_CAT_ID": 66511, "ELEMENT_SET_NO": 999, "REV_AT_EPOCH": 522, "BSTAR": -0.0021844, "MEAN_MOTION_DOT": -0.00126577, "MEAN_MOTION_DDOT": 0}, "tle": {"line1": "1 66511U 25263AC  25344.16668980 -.00126577  00000+0 -21844-2 0  9999", "line2": "2 66511  43.0008 140.0935 0001498 266.4298  85.2242 15.50609670  5228"}}, "geometry": {"type": "Point", "coordinates": [100.10902526349889, -29.92127043615522]}}, {"type": "Feature", "properties": {"norad_id": 66512, "name": "STARLINK-35366", "group": "last-30-days", "lat": -27.822315607255067, "lon": 103.74507326144492, "alt_km": 417.10040296368334, "timestamp": "2025-12-10T11:33:52.171764+00:00", "meta": {"OBJECT_NAME": "STARLINK-35366", "OBJECT_ID": "2025-263AD", "EPOCH": "2025-12-10T04:00:01.998720", "MEAN_MOTION": 15.50601268, "ECCENTRICITY": 0.0001538, "INCLINATION": 43.0007, "RA_OF_ASC_NODE": 140.083, "ARG_OF_PERICENTER": 260.9476, "MEAN_ANOMALY": 94.5296, "EPHEMERIS_TYPE": 0, "CLASSIFICATION_TYPE": "U", "NORAD_CAT_ID": 66512, "ELEMENT_SET_NO": 999, "REV_AT_EPOCH": 522, "BSTAR": -0.0017475, "MEAN_MOTION_DOT": -0.00101623, "MEAN_MOTION_DDOT": 0}, "tle": {"line1": "1 66512U 25263AD  25344.16668980 -.00101623  00000+0 -17475-2 0  9990", "line2": "2 66512  43.0007 140.0830 0001538 260.9476  94.5296 15.50601268  5221"}}, "geometry": {"type": "Point", "coordinates": [103.74507326144492, -27.822315607255067]}}, {"type": "Feature", "properties": {"norad_id": 66513, "name": "STARLINK-35692", "group": "last-30-days", "lat": -30.985219428503456, "lon": 98.13142867241052, "alt_km": 417.02516098734213, "timestamp": "2025-12-10T11:33:52.171774+00:00", "meta": {"OBJECT_NAME": "STARLINK-35692", "OBJECT_ID": "2025-263AE", "EPOCH": "2025-12-10T04:00:01.998720", "MEAN_MOTION": 15.50498881, "ECCENTRICITY": 0.0001616, "INCLINATION": 43.0007, "RA_OF_ASC_NODE": 140.0968, "ARG_OF_PERICENTER": 274.6899, "MEAN_ANOMALY": 75.0118, "EPHEMERIS_TYPE": 0, "CLASSIFICATION_TYPE": "U", "NORAD_CAT_ID": 66513, "ELEMENT_SET_NO": 999, "REV_AT_EPOCH": 522, "BSTAR": 0.00095069, "MEAN_MOTION_DOT": 0.00055669, "MEAN_MOTION_DDOT": 0}, "tle": {"line1": "1 66513U 25263AE  25344.16668980  .00055669  00000+0  95069-3 0  9993", "line2": "2 66513  43.0007 140.0968 0001616 274.6899  75.0118 15.50498881  5224"}}, "geometry": {"type": "Point", "coordinates": [98.13142867241052, -30.985219428503456]}}, {"type": "Feature", "properties": {"norad_id": 66514, "name": "SENTINEL-6B", "group": "last-30-days", "lat": 44.89093531498357, "lon": -39.17268994482448, "alt_km": 1332.5771878255164, "timestamp": "2025-12-10T11:33:52.171786+00:00", "meta": {"OBJECT_NAME": "SENTINEL-6B", "OBJECT_ID": "2025-264A", "EPOCH": "2025-12-08T23:22:28.384896", "MEAN_MOTION": 12.84031992, "ECCENTRICITY": 0.00210406, "INCLINATION": 66.0385, "RA_OF_ASC_NODE": 170.2707, "ARG_OF_PERICENTER": 268.23, "MEAN_ANOMALY": 91.6307, "EPHEMERIS_TYPE": 0, "CLASSIFICATION_TYPE": "U", "NORAD_CAT_ID": 66514, "ELEMENT_SET_NO": 999, "REV_AT_EPOCH": 280, "BSTAR": 0.000106025, "MEAN_MOTION_DOT": -3.6e-07, "MEAN_MOTION_DDOT": 0}, "tle": {"line1": "1 66514U 25264A   25342.97393964 -.00000036  00000+0  10602-3 0  9998", "line2": "2 66514  66.0385 170.2707 0021040 268.2300  91.6307 12.84031992  2809"}}, "geometry": {"type": "Point", "coordinates": [-39.17268994482448, 44.89093531498357]}}]}